NORAD_CAT_ID,OBJECT_NAME,OBJECT_TYPE,EPOCH,MEAN_MOTION,ECCENTRICITY,INCLINATION,RA_OF_ASC_NODE,ARG_OF_PERICENTER,MEAN_ANOMALY,BSTAR,MEAN_MOTION_DOT,MEAN_MOTION_DDOT,TLE_LINE0,TLE_LINE1,TLE_LINE2,SEMIMAJOR_AXIS,PERIOD,APOGEE,PERIGEE,DECAYED
55288.0,STARLINK-5311,PAYLOAD,2023-05-24 06:00:00,15.42418507,0.0003451,70.001,79.3198,274.6981,229.6521,-0.021832,-0.00873511,0.0,0 STARLINK-5311,1 55288U 23010V   23144.25001157 -.00873511  00000-0 -21832-1 0  9993,2 55288  70.0010  79.3198 0003451 274.6981 229.6521 15.42418507 20067,6817.111,93.36,441.328,436.623,0.0
55288.0,STARLINK-5311,PAYLOAD,2023-05-24 22:00:00,15.41158763,0.000348,70.0011,77.5228,267.6603,335.8683,-0.024968,-0.00950812,0.0,0 STARLINK-5311,1 55288U 23010V   23144.91667824 -.00950812  00000-0 -24968-1 0  9998,2 55288  70.0011  77.5228 0003480 267.6603 335.8683 15.41158763 20161,6820.825,93.436,445.064,440.317,0.0
55288.0,STARLINK-5311,PAYLOAD,2023-05-25 14:00:01,15.39795865,0.0003414,70.0007,75.7292,267.5152,72.09,-0.023331,-0.00856715,0.0,0 STARLINK-5311,1 55288U 23010V   23145.58334491 -.00856715  00000-0 -23331-1 0  9993,2 55288  70.0007  75.7292 0003414 267.5152  72.0900 15.39795865 20262,6824.849,93.519,449.044,444.384,0.0
55288.0,STARLINK-5311,PAYLOAD,2023-05-26 00:00:02,15.39017556,0.0003388,70.0007,74.6102,271.6065,216.5043,-0.026141,-0.00929217,0.0,0 STARLINK-5311,1 55288U 23010V   23146.00002315 -.00929217  00000-0 -26141-1 0  9998,2 55288  70.0007  74.6102 0003388 271.6065 216.5043 15.39017556  1300,6827.15,93.566,451.328,446.702,0.0
55288.0,STARLINK-5311,PAYLOAD,2023-05-26 06:00:00,15.3851657,0.0003473,70.0006,73.9392,275.5504,156.9747,-0.025364,-0.00890199,0.0,0 STARLINK-5311,1 55288U 23010V   23146.25001157 -.00890199  00000-0 -25364-1 0  9990,2 55288  70.0006  73.9392 0003473 275.5504 156.9747 15.38516570 20362,6828.632,93.597,452.869,448.126,0.0
55288.0,STARLINK-5311,PAYLOAD,2023-05-26 14:00:01,15.37835498,0.0003299,70.0006,73.0459,269.076,208.7523,-0.024577,-0.00847001,0.0,0 STARLINK-5311,1 55288U 23010V   23146.58334491 -.00847001  00000-0 -24577-1 0  9995,2 55288  70.0006  73.0459 0003299 269.0760 208.7523 15.37835498  1308,6830.648,93.638,454.767,450.26,0.0
55288.0,STARLINK-5311,PAYLOAD,2023-05-26 22:00:01,15.37249932,0.000333,70.0007,72.1532,269.9851,252.4002,-0.028894,-0.00966021,0.0,0 STARLINK-5311,1 55288U 23010V   23146.91668981 -.00966021  00000-0 -28894-1 0  9996,2 55288  70.0007  72.1532 0003330 269.9851 252.4002 15.37249932 20476,6832.383,93.674,456.523,451.973,0.0
55288.0,STARLINK-5311,PAYLOAD,2023-05-27 14:00:01,15.35877162,0.0003284,70.0006,70.3703,269.6029,339.4093,-0.026056,-0.00843099,0.0,0 STARLINK-5311,1 55288U 23010V   23147.58334491 -.00843099  00000-0 -26056-1 0  9993,2 55288  70.0006  70.3703 0003284 269.6029 339.4093 15.35877162 20574,6836.453,93.757,460.563,456.073,0.0
55288.0,STARLINK-5311,PAYLOAD,2023-05-27 22:00:00,15.35286427,0.0003359,70.0008,69.4804,269.8341,21.3264,-0.030451,-0.00956418,0.0,0 STARLINK-5311,1 55288U 23010V   23147.91667824 -.00956418  00000-0 -30451-1 0  9993,2 55288  70.0008  69.4804 0003359 269.8341  21.3264 15.35286427 20620,6838.207,93.794,462.369,457.775,0.0
55288.0,STARLINK-5311,PAYLOAD,2023-05-28 06:00:00,15.34617393,0.0003445,70.0005,68.591,275.5949,56.9427,-0.029464,-0.00909877,0.0,0 STARLINK-5311,1 55288U 23010V   23148.25001157 -.00909877  00000-0 -29464-1 0  9991,2 55288  70.0005  68.5910 0003445 275.5949  56.9427 15.34617393  1307,6840.194,93.834,464.416,459.703,0.0
55288.0,STARLINK-5311,PAYLOAD,2023-05-28 14:00:01,15.33916451,0.0003356,70.0007,67.7026,270.3386,102.817,-0.027508,-0.00836531,0.0,0 STARLINK-5311,1 55288U 23010V   23148.58334491 -.00836531  00000-0 -27508-1 0  9990,2 55288  70.0007  67.7026 0003356 270.3386 102.8170 15.33916451 20726,6842.278,93.877,466.439,461.847,0.0
55288.0,STARLINK-5311,PAYLOAD,2023-05-28 22:00:00,15.33326158,0.0003342,70.0011,66.8153,271.6813,141.2758,-0.032227,-0.00951335,0.0,0 STARLINK-5311,1 55288U 23010V   23148.91667824 -.00951335  00000-0 -32227-1 0  9990,2 55288  70.0011  66.8153 0003342 271.6813 141.2758 15.33326158 20779,6844.034,93.913,468.186,463.612,0.0
55288.0,STARLINK-5311,PAYLOAD,2023-05-29 04:02:58,15.34486984,0.0002487,69.9987,66.1509,277.2769,82.8126,-0.0085603,-0.00276694,0.0,0 STARLINK-5311,1 55288U 23010V   23149.16873744 -.00276694  00000-0 -85603-2 0  9993,2 55288  69.9987  66.1509 0002487 277.2769  82.8126 15.34486984 20816,6840.582,93.842,464.148,460.745,0.0
55288.0,STARLINK-5311,PAYLOAD,2023-05-29 11:52:50,15.33927513,0.000375,69.999,65.2833,270.5633,89.5115,-0.0084514,-0.00268709,0.0,0 STARLINK-5311,1 55288U 23010V   23149.49503117 -.00268709  00000-0 -84514-2 0  9991,2 55288  69.9990  65.2833 0003750 270.5633  89.5115 15.33927513 21179,6842.245,93.877,466.676,461.544,0.0
55288.0,STARLINK-5311,PAYLOAD,2023-05-29 14:00:01,15.31960745,0.0003186,70.0009,65.0428,270.0921,220.1632,-0.029207,-0.00835085,0.0,0 STARLINK-5311,1 55288U 23010V   23149.58334491 -.00835085  00000-0 -29207-1 0  9992,2 55288  70.0009  65.0428 0003186 270.0921 220.1632 15.31960745 20885,6848.1,93.997,472.147,467.783,0.0
55288.0,STARLINK-5311,PAYLOAD,2023-05-29 21:17:06,15.32997509,0.000433,69.9987,64.2444,278.8725,81.1961,-0.0077492,-0.00240187,0.0,0 STARLINK-5311,1 55288U 23010V   23149.88688178 -.00240187  00000-0 -77492-2 0  9992,2 55288  69.9987  64.2444 0004330 278.8725  81.1961 15.32997509 21235,6845.012,93.934,469.841,463.913,0.0
55288.0,STARLINK-5311,PAYLOAD,2023-05-29 22:00:00,15.3136162,0.0003156,70.0013,64.158,270.4055,257.3087,-0.033813,-0.00939323,0.0,0 STARLINK-5311,1 55288U 23010V   23149.91667824 -.00939323  00000-0 -33813-1 0  9996,2 55288  70.0013  64.1580 0003156 270.4055 257.3087 15.31361620 20937,6849.886,94.034,473.913,469.589,0.0
55288.0,STARLINK-5311,PAYLOAD,2023-05-30 14:00:01,15.30007975,0.0003141,70.0012,62.391,266.1049,334.2089,-0.031194,-0.00838878,0.0,0 STARLINK-5311,1 55288U 23010V   23150.58334491 -.00838878  00000-0 -31194-1 0  9995,2 55288  70.0012  62.3910 0003141 266.1049 334.2089 15.30007975 21030,6853.925,94.117,477.943,473.638,0.0
55288.0,STARLINK-5311,PAYLOAD,2023-05-30 22:00:00,15.29399341,0.0003198,70.0015,61.509,268.1115,7.3183,-0.035548,-0.00929918,0.0,0 STARLINK-5311,1 55288U 23010V   23150.91667824 -.00929918  00000-0 -35548-1 0  9994,2 55288  70.0015  61.5090 0003198 268.1115   7.3183 15.29399341 21088,6855.744,94.155,479.801,475.416,0.0
55288.0,STARLINK-5311,PAYLOAD,2023-05-31 00:00:02,15.29207989,0.000327,70.0014,61.2885,271.9255,102.2344,-0.033719,-0.00881054,0.0,0 STARLINK-5311,1 55288U 23010V   23151.00002315 -.00881054  00000-0 -33719-1 0  9999,2 55288  70.0014  61.2885 0003270 271.9255 102.2344 15.29207989  1307,6856.316,94.166,480.423,475.939,0.0
55288.0,STARLINK-5311,PAYLOAD,2023-05-31 14:00:01,15.28054546,0.0003256,70.0015,59.7475,266.8945,76.4382,-0.033321,-0.00843381,0.0,0 STARLINK-5311,1 55288U 23010V   23151.58334491 -.00843381  00000-0 -33321-1 0  9995,2 55288  70.0015  59.7475 0003256 266.8945  76.4382 15.28054546  1300,6859.766,94.237,483.864,479.397,0.0
55288.0,STARLINK-5311,PAYLOAD,2023-05-31 22:00:00,15.27439479,0.0003261,70.0017,58.8681,269.9673,106.1375,-0.037586,-0.00937795,0.0,0 STARLINK-5311,1 55288U 23010V   23151.91667824 -.00937795  00000-0 -37586-1 0  9991,2 55288  70.0017  58.8681 0003261 269.9673 106.1375 15.27439479  1303,6861.607,94.275,485.709,481.234,0.0
55288.0,STARLINK-5311,PAYLOAD,2023-06-01 06:00:00,15.26801112,0.0003161,70.0014,57.9896,276.0077,132.0783,-0.038683,-0.00945929,0.0,0 STARLINK-5311,1 55288U 23010V   23152.25001157 -.00945929  00000-0 -38683-1 0  9997,2 55288  70.0014  57.9896 0003161 276.0077 132.0783 15.26801112 21280,6863.519,94.315,487.554,483.215,0.0
55288.0,STARLINK-5311,PAYLOAD,2023-06-01 12:00:02,15.26261441,0.0003151,70.0017,57.3313,268.3376,73.3122,-0.035757,-0.00855857,0.0,0 STARLINK-5311,1 55288U 23010V   23152.50002315 -.00855857  00000-0 -35757-1 0  9991,2 55288  70.0017  57.3313 0003151 268.3376  73.3122 15.26261441  1306,6865.137,94.348,489.165,484.839,0.0
55288.0,STARLINK-5311,PAYLOAD,2023-06-01 22:00:00,15.25476826,0.0003146,70.0018,56.2354,271.6168,198.1232,-0.03953,-0.00929881,0.0,0 STARLINK-5311,1 55288U 23010V   23152.91667824 -.00929881  00000-0 -39530-1 0  9990,2 55288  70.0018  56.2354 0003146 271.6168 198.1232 15.25476826  1302,6867.491,94.397,491.517,487.195,0.0
55288.0,STARLINK-5311,PAYLOAD,2023-06-02 13:16:34,15.2611868,0.0002973,69.9992,54.5678,256.4751,103.6092,-0.010373,-0.00259372,0.0,0 STARLINK-5311,1 55288U 23010V   23153.55317901 -.00259372  00000-0 -10373-1 0  9994,2 55288  69.9992  54.5678 0002973 256.4751 103.6092 15.26118680 21798,6865.565,94.357,489.471,485.389,0.0
55288.0,STARLINK-5311,PAYLOAD,2023-06-02 14:00:01,15.24151465,0.000304,70.0017,54.4848,268.4178,259.8298,-0.038199,-0.00857825,0.0,0 STARLINK-5311,1 55288U 23010V   23153.58334491 -.00857825  00000-0 -38199-1 0  9993,2 55288  70.0017  54.4848 0003040 268.4178 259.8298 15.24151465 21494,6871.472,94.479,495.426,491.248,0.0
55288.0,STARLINK-5311,PAYLOAD,2023-06-02 22:00:00,15.23511937,0.0003072,70.0018,53.6108,270.887,285.4486,-0.041284,-0.00916588,0.0,0 STARLINK-5311,1 55288U 23010V   23153.91667824 -.00916588  00000-0 -41284-1 0  9990,2 55288  70.0018  53.6108 0003072 270.8870 285.4486 15.23511937 21549,6873.394,94.518,497.371,493.148,0.0
55288.0,STARLINK-5311,PAYLOAD,2023-06-03 14:00:01,15.22198093,0.0003093,70.0016,51.8652,266.6107,343.5346,-0.040751,-0.00863024,0.0,0 STARLINK-5311,1 55288U 23010V   23154.58334491 -.00863024  00000-0 -40751-1 0  9999,2 55288  70.0016  51.8652 0003093 266.6107 343.5346 15.22198093  1306,6877.349,94.6,501.341,497.087,0.0
55288.0,STARLINK-5311,PAYLOAD,2023-06-03 20:48:25,15.23152466,0.0002066,69.9997,51.1306,238.7803,121.3167,-0.0098154,-0.00225603,0.0,0 STARLINK-5311,1 55288U 23010V   23154.86696440 -.00225603  00000-0 -98154-2 0  9991,2 55288  69.9997  51.1306 0002066 238.7803 121.3167 15.23152466 21997,6874.476,94.541,497.761,494.921,0.0
